WNISAT 1R               
1 42835U 17042L   26068.86192839  .00004802  00000+0  37840-3 0  9992
2 42835  97.4515 228.7079 0013301 131.3338 228.9034 15.01153186471607
STARLINK-33790          
1 64029U 25102H   26068.51176154  .00003510  00000+0  30189-3 0  9995
2 64029  70.0019 114.9764 0002847 259.5585 100.5253 14.98323551 45974
